GLOBALSTAR M001         
1 25162U 98008A   25122.97875910 -.00000071  00000+0  19561-3 0  9992
2 25162  52.0011 104.8044 0001356 149.5543 223.3467 12.38213563238110
GLOBALSTAR M004         
1 25163U 98008B   25122.92480231 -.00000052  00000+0  28810-3 0  9992
2 25163  51.9991 192.2367 0003345 185.9597 345.6492 12.63395284255965
GLOBALSTAR M002         
1 25164U 98008C   25122.89912045 -.00000070  00000+0  13026-3 0  9995
2 25164  52.0046 353.7566 0002135  69.9666 290.1384 11.61509475178805
GLOBALSTAR M003         
1 25165U 98008D   25122.95305057 -.00000110  00000+0 -22202-3 0  9994
2 25165  52.0006 293.8021 0007948 197.4533 330.1695 12.12076507227738
GLOBALSTAR M014         
1 25306U 98023A   25122.86582666 -.00000050  00000+0  50861-3 0  9995
2 25306  51.9840 278.0177 0000428 229.3047 298.9378 11.65480122185884
GLOBALSTAR M006         
1 25307U 98023B   25122.92501061 -.00000066  00000+0  19818-3 0  9997
2 25307  51.9961 328.6500 0003649  34.8051 109.4466 11.58174532211581
GLOBALSTAR M015         
1 25308U 98023C   25122.89716554 -.00000048  00000+0  59159-3 0  9991
2 25308  51.9828  65.1092 0012836 356.1076  78.8585 11.48859073188873
GLOBALSTAR M008         
1 25309U 98023D   25122.96995370 -.00000054  00000+0  33292-3 0  9992
2 25309  51.9984 329.1519 0003423  83.6068  64.5214 12.36068430232259
